{
  "type": "FeatureCollection",
  "features": [
    {
      "type": "Feature",
      "properties": {
        "norad_id": 66503,
        "name": "STARLINK-35917",
        "group": "last-30-days",
        "lat": 28.668308232561234,
        "lon": 149.70828584291039,
        "alt_km": 439.9225232227427,
        "timestamp": "2025-12-14T16:47:39.436066+00:00",
        "meta_object_name": "STARLINK-35917",
        "meta_object_id": "2025-263U",
        "meta_epoch": "2025-12-13T22:00:00.999936",
        "meta_mean_motion": 15.40653191,
        "meta_eccentricity": 0.00017068,
        "meta_inclination": 42.9999,
        "meta_ra_of_asc_node": 118.2951,
        "meta_arg_of_pericenter": 279.6006,
        "meta_mean_anomaly": 96.6113,
        "meta_ephemeris_type": 0,
        "meta_classification_type": "U",
        "meta_norad_cat_id": 66503,
        "meta_element_set_no": 999,
        "meta_rev_at_epoch": 582,
        "meta_bstar": 0.0014574351,
        "meta_mean_motion_dot": 0.00060971,
        "meta_mean_motion_ddot": 0,
        "tle_line1": "1 66503U 25263U   25347.91667824  .00060971  00000+0  14574-2 0  9997",
        "tle_line2": "2 66503  42.9999 118.2951 0001706 279.6006  96.6113 15.40653191  5821"
      },
      "geometry": {
        "type": "Point",
        "coordinates": [
          149.70828584291039,
          28.668308232561234
        ]
      }
    },
    {
      "type": "Feature",
      "properties": {
        "norad_id": 66504,
        "name": "STARLINK-35916",
        "group": "last-30-days",
        "lat": 32.113619250681026,
        "lon": -107.01317595206493,
        "alt_km": 438.56734267240336,
        "timestamp": "2025-12-14T16:47:39.436077+00:00",
        "meta_object_name": "STARLINK-35916",
        "meta_object_id": "2025-263V",
        "meta_epoch": "2025-12-13T16:54:06.833664",
        "meta_mean_motion": 15.40762632,
        "meta_eccentricity": 2.061e-05,
        "meta_inclination": 42.9948,
        "meta_ra_of_asc_node": 121.0759,
        "meta_arg_of_pericenter": 329.9033,
        "meta_mean_anomaly": 30.1812,
        "meta_ephemeris_type": 0,
        "meta_classification_type": "U",
        "meta_norad_cat_id": 66504,
        "meta_element_set_no": 999,
        "meta_rev_at_epoch": 569,
        "meta_bstar": 0.0011896968,
        "meta_mean_motion_dot": 0.00049822,
        "meta_mean_motion_ddot": 0,
        "tle_line1": "1 66504U 25263V   25347.70424576  .00049822  00000+0  11897-2 0  9997",
        "tle_line2": "2 66504  42.9948 121.0759 0000206 329.9033  30.1812 15.40762632  5692"
      },
      "geometry": {
        "type": "Point",
        "coordinates": [
          -107.01317595206493,
          32.113619250681026
        ]
      }
    },
    {
      "type": "Feature",
      "properties": {
        "norad_id": 66505,
        "name": "STARLINK-34766",
        "group": "last-30-days",
        "lat": 39.693593248823845,
        "lon": -129.36077505141932,
        "alt_km": 408.3611865337234,
        "timestamp": "2025-12-14T16:47:39.436087+00:00",
        "meta_object_name": "STARLINK-34766",
        "meta_object_id": "2025-263W",
        "meta_epoch": "2025-12-12T17:56:57.882624",
        "meta_mean_motion": 15.50613801,
        "meta_eccentricity": 0.00016181,
        "meta_inclination": 42.9974,
        "meta_ra_of_asc_node": 125.0394,
        "meta_arg_of_pericenter": 278.9286,
        "meta_mean_anomaly": 81.1391,
        "meta_ephemeris_type": 0,
        "meta_classification_type": "U",
        "meta_norad_cat_id": 66505,
        "meta_element_set_no": 999,
        "meta_rev_at_epoch": 556,
        "meta_bstar": 0.0019225717,
        "meta_mean_motion_dot": 0.00114249,
        "meta_mean_motion_ddot": 0,
        "tle_line1": "1 66505U 25263W   25346.74789216  .00114249  00000+0  19226-2 0  9996",
        "tle_line2": "2 66505  42.9974 125.0394 0001618 278.9286  81.1391 15.50613801  5560"
      },
      "geometry": {
        "type": "Point",
        "coordinates": [
          -129.36077505141932,
          39.693593248823845
        ]
      }
    },
    {
      "type": "Feature",
      "properties": {
        "norad_id": 66506,
        "name": "STARLINK-34765",
        "group": "last-30-days",
        "lat": 39.289299717513806,
        "lon": -127.77786794244362,
        "alt_km": 408.84416396713914,
        "timestamp": "2025-12-14T16:47:39.436099+00:00",
        "meta_object_name": "STARLINK-34765",
        "meta_object_id": "2025-263X",
        "meta_epoch": "2025-12-13T09:24:02.209536",
        "meta_mean_motion": 15.50662448,
        "meta_eccentricity": 0.00019802,
        "meta_inclination": 43.0016,
        "meta_ra_of_asc_node": 121.276,
        "meta_arg_of_pericenter": 266.2517,
        "meta_mean_anomaly": 93.8117,
        "meta_ephemeris_type": 0,
        "meta_classification_type": "U",
        "meta_norad_cat_id": 66506,
        "meta_element_set_no": 999,
        "meta_rev_at_epoch": 566,
        "meta_bstar": 0.0020838032,
        "meta_mean_motion_dot": 0.00124234,
        "meta_mean_motion_ddot": 0,
        "tle_line1": "1 66506U 25263X   25347.39169224  .00124234  00000+0  20838-2 0  9996",
        "tle_line2": "2 66506  43.0016 121.2760 0001980 266.2517  93.8117 15.50662448  5662"
      },
      "geometry": {
        "type": "Point",
        "coordinates": [
          -127.77786794244362,
          39.289299717513806
        ]
      }
    },
    {
      "type": "Feature",
      "properties": {
        "norad_id": 66507,
        "name": "STARLINK-34767",
        "group": "last-30-days",
        "lat": 13.360576592865849,
        "lon": 128.60720248218976,
        "alt_km": 441.77270198197857,
        "timestamp": "2025-12-14T16:47:39.436124+00:00",
        "meta_object_name": "STARLINK-34767",
        "meta_object_id": "2025-263Y",
        "meta_epoch": "2025-12-13T22:00:00.999936",
        "meta_mean_motion": 15.40665926,
        "meta_eccentricity": 0.00016588,
        "meta_inclination": 42.9999,
        "meta_ra_of_asc_node": 118.3547,
        "meta_arg_of_pericenter": 283.5355,
        "meta_mean_anomaly": 67.7537,
        "meta_ephemeris_type": 0,
        "meta_classification_type": "U",
        "meta_norad_cat_id": 66507,
        "meta_element_set_no": 999,
        "meta_rev_at_epoch": 582,
        "meta_bstar": 0.0013943753,
        "meta_mean_motion_dot": 0.00058324,
        "meta_mean_motion_ddot": 0,
        "tle_line1": "1 66507U 25263Y   25347.91667824  .00058324  00000+0  13944-2 0  9990",
        "tle_line2": "2 66507  42.9999 118.3547 0001658 283.5355  67.7537 15.40665926  5822"
      },
      "geometry": {
        "type": "Point",
        "coordinates": [
          128.60720248218976,
          13.360576592865849
        ]
      }
    },
    {
      "type": "Feature",
      "properties": {
        "norad_id": 66508,
        "name": "STARLINK-35608",
        "group": "last-30-days",
        "lat": 39.45394507721199,
        "lon": 175.75113310869432,
        "alt_km": 442.85512350333283,
        "timestamp": "2025-12-14T16:47:39.436136+00:00",
        "meta_object_name": "STARLINK-35608",
        "meta_object_id": "2025-263Z",
        "meta_epoch": "2025-12-13T22:00:00.999936",
        "meta_mean_motion": 15.42861124,
        "meta_eccentricity": 0.00012127,
        "meta_inclination": 43.0002,
        "meta_ra_of_asc_node": 118.2399,
        "meta_arg_of_pericenter": 284.4703,
        "meta_mean_anomaly": 114.8476,
        "meta_ephemeris_type": 0,
        "meta_classification_type": "U",
        "meta_norad_cat_id": 66508,
        "meta_element_set_no": 999,
        "meta_rev_at_epoch": 582,
        "meta_bstar": -0.054508116,
        "meta_mean_motion_dot": -0.02198416,
        "meta_mean_motion_ddot": 0,
        "tle_line1": "1 66508U 25263Z   25347.91667824 -.02198416  00000+0 -54508-1 0  9992",
        "tle_line2": "2 66508  43.0002 118.2399 0001212 284.4703 114.8476 15.42861124  5823"
      },
      "geometry": {
        "type": "Point",
        "coordinates": [
          175.75113310869432,
          39.45394507721199
        ]
      }
    },
    {
      "type": "Feature",
      "properties": {
        "norad_id": 66509,
        "name": "STARLINK-35598",
        "group": "last-30-days",
        "lat": 32.19763945167199,
        "lon": -108.93599026449726,
        "alt_km": 410.8621288811919,
        "timestamp": "2025-12-14T16:47:39.436147+00:00",
        "meta_object_name": "STARLINK-35598",
        "meta_object_id": "2025-263AA",
        "meta_epoch": "2025-12-13T17:03:22.446144",
        "meta_mean_motion": 15.50682418,
        "meta_eccentricity": 0.00033899,
        "meta_inclination": 43.0011,
        "meta_ra_of_asc_node": 119.3612,
        "meta_arg_of_pericenter": 267.2282,
        "meta_mean_anomaly": 92.819,
        "meta_ephemeris_type": 0,
        "meta_classification_type": "U",
        "meta_norad_cat_id": 66509,
        "meta_element_set_no": 999,
        "meta_rev_at_epoch": 571,
        "meta_bstar": 0.0017943251,
        "meta_mean_motion_dot": 0.00106776,
        "meta_mean_motion_ddot": 0,
        "tle_line1": "1 66509U 25263AA  25347.71067646  .00106776  00000+0  17943-2 0  9994",
        "tle_line2": "2 66509  43.0011 119.3612 0003389 267.2282  92.8190 15.50682418  5714"
      },
      "geometry": {
        "type": "Point",
        "coordinates": [
          -108.93599026449726,
          32.19763945167199
        ]
      }
    }
  ]
}